IRIDIUM 63              
1 25286U 98021B   25180.22989764  .00000241  00000+0  75335-4 0  9999
2 25286  86.3969  77.0806 0002037  87.5517 272.5913 14.36552967425579
IRIDIUM 69              
1 25319U 98026A   25180.48336535  .00000315  00000+0  91829-4 0  9999
2 25319  86.3967  90.2279 0002925  32.2520 327.8858 14.40977350424834
IRIDIUM 71              
1 25320U 98026B   25180.48858642  .00000299  00000+0  86643-4 0  9998
2 25320  86.3963  84.9139 0004076  65.7084 294.4541 14.41166263425363
IRIDIUM 73              
1 25344U 98032C   25180.60677373  .00000304  00000+0  70638-4 0  9999
2 25344  86.4402  41.5410 0001807  72.6372 287.5031 14.51725181432361
IRIDIUM 82              
1 25467U 98051A   25180.30294547  .00011953  00000+0  33913-3 0  9997
2 25467  86.3670 103.7795 0081101 249.6934 109.5588 15.32745277425815
